[{"OBJECT_NAME":"TIANQI-6","OBJECT_ID":"2020-076D","EPOCH":"2026-03-09T22:50:24.728640","MEAN_MOTION":15.06417552,"ECCENTRICITY":0.00106023,"INCLINATION":34.9994,"RA_OF_ASC_NODE":297.1791,"ARG_OF_PERICENTER":9.4595,"MEAN_ANOMALY":350.6312,"EPHEMERIS_TYPE":0,"CLASSIFICATION_TYPE":"U","NORAD_CAT_ID":46810,"ELEMENT_SET_NO":999,"REV_AT_EPOCH":29360,"BSTAR":0.00037023286,"MEAN_MOTION_DOT":5.552e-5,"MEAN_MOTION_DDOT":0},{"OBJECT_NAME":"STARLINK-34810","OBJECT_ID":"2025-165N","EPOCH":"2026-03-09T17:25:30.860832","MEAN_MOTION":15.0565435,"ECCENTRICITY":0.00011921,"INCLINATION":97.6017,"RA_OF_ASC_NODE":147.2304,"ARG_OF_PERICENTER":108.3735,"MEAN_ANOMALY":251.7622,"EPHEMERIS_TYPE":0,"CLASSIFICATION_TYPE":"U","NORAD_CAT_ID":65068,"ELEMENT_SET_NO":999,"REV_AT_EPOCH":3479,"BSTAR":0.00027894492,"MEAN_MOTION_DOT":3.967e-5,"MEAN_MOTION_DDOT":0}]
